#aV2007  8 21  0  0   .00000000      96 DD+AD WGS84 FIT  NGA
## 1441 172800.00000000   900.00000000 54333  .0000000000000
+   31     1  2  3  4  5  6  7  8  9 10 11 12 13 14 16 17 18
+         19 20 21 22 23 24 25 26 27 28 29 30 31 32  0  0  0
+          0  0  0  0  0  0  0  0  0  0  0  0  0  0  0  0  0
+          0  0  0  0  0  0  0  0  0  0  0  0  0  0  0  0  0
+          0  0  0  0  0  0  0  0  0  0  0  0  0  0  0  0  0
++         0  0  0  0  0  0  0  0  0  0  0  0  0  0  0  0  0
++         0  0  0  0  0  0  0  0  0  0  0  0  0  0  0  0  0
++         0  0  0  0  0  0  0  0  0  0  0  0  0  0  0  0  0
++         0  0  0  0  0  0  0  0  0  0  0  0  0  0  0  0  0
++         0  0  0  0  0  0  0  0  0  0  0  0  0  0  0  0  0
%c cc cc ccc ccc cccc cccc cccc cccc ccccc ccccc ccccc ccccc
%c cc cc ccc ccc cccc cccc cccc cccc ccccc ccccc ccccc ccccc
%f  0.0000000  0.000000000  0.00000000000  0.000000000000000
%f  0.0000000  0.000000000  0.00000000000  0.000000000000000
%i    0    0    0    0      0      0      0      0         0
%i    0    0    0    0      0      0      0      0         0
/*      NGA, ST. LOUIS,MO.                                  
/*   EPHEMERIS COMPUTED FROM  3 DAYS OF DATA                
/* CCCCCCCCCCCCCCCCCCCCCCCCCCCCCCCCCCCCCCCCCCCCCCCCCCCCCCCCC
/* CCCCCCCCCCCCCCCCCCCCCCCCCCCCCCCCCCCCCCCCCCCCCCCCCCCCCCCCC
*  2007  8 21 23  0   .00000000                                                 
P  1  19556.694021  14547.965503 -10427.534844    147.543703                    
V  1   6822.380167  11754.849717  28548.717350       .024210                    
P  2 -15623.619163  -2445.676596 -21509.762576    130.767625                    
V  2   8597.075897 -25539.095678  -3671.649292       .027711                    
P  3  21516.436578   5750.690094  14498.594965    104.716433                    
V  3  11550.644724  15014.043005 -22409.601686       .053901                    
P  4  -9959.317721 -14402.032310 -19937.094755       .057054                    
V  4  10309.788185 -23178.723027  11988.430167      -.024750                    
P  5 -15204.134361  15631.125074 -15313.523058    314.719605                    
V  5 -19101.278811   2571.199797  22099.522075       .377819                    
P  6   1208.535369  20147.107414 -17060.678822    246.370226                    
V  6 -16532.456526 -14879.870455 -18571.060762       .010996                    
P  7   3890.691861  20818.717193 -15653.774763     -2.522876                    
V  7 -16080.800723 -13131.180965 -21046.230757      -.867516                    
P  8  -2265.887287 -21255.509309  15349.247585   -119.784600                    
V  8   9448.374250 -17550.427869 -23182.909602      -.014252                    
P  9 -14249.644651  18872.906463  11276.527132     84.232320                    
V  9   2262.963519 -15368.531886  27319.900785       .016954                    
P 10 -26207.269510    197.882356  -5377.042529    106.424536                    
V 10   6208.970784  -3192.647421 -30738.902961       .005687                    
P 11  12448.524750 -20620.542289  10746.806975     22.519777                    
V 11   1937.372989  14648.984100  25899.416240       .005658                    
P 12 -21358.129899  11383.518687 -10762.282982    -53.490735                    
V 12 -14056.478675    -41.578482  27663.507787      -.012996                    
P 13   -995.385702 -19954.298564 -17625.018064    200.187040                    
V 13  14332.748857  16824.173769 -19952.747711       .030510                    
P 14  15657.906622  21448.562619   1809.587475     36.834191                    
V 14  -2795.929186   -554.061242  32193.428254       .021511                    
P 16  24276.527611   3383.874214 -10355.290711    170.842311                    
V 16 -12674.398462   4344.173136 -27928.413686       .023608                    
P 17 -14771.268170 -21868.375892   3618.100666     57.084537                    
V 17   4980.692414   1793.272567  31203.665693      -.012144                    
P 18  -1548.120556  15663.223173  21512.910014   -239.618752                    
V 18 -26862.535645   3042.443833  -4527.453672       .015662                    
P 19  15709.803242  -3794.988587  21196.498324     59.902098                    
V 19  15278.051785  21874.838931  -7305.679801       .026440                    
P 20  18356.623375 -13464.128655 -13760.179115    -28.456022                    
V 20  17478.345120   -874.583557  24384.970284      -.005631                    
P 21  -4251.345719  24922.475300   7215.765024     78.594308                    
V 21  -6914.753030   7103.637920 -29764.942348      -.001203                    
P 22  12603.357031  12682.373976  19812.757065    195.199815                    
V 22 -24481.467842   4373.259363  12833.009532       .012605                    
P 23   8088.655059 -13309.563061 -21563.695845    193.368850                    
V 23  17888.057641  20493.465603  -6180.626500       .036894                    
P 24 -12684.429783  23184.982226  -3712.726054     24.559594                    
V 24   -601.680402  -5606.809707 -30971.942655       .029045                    
P 25   6610.466900 -25809.311156    144.890362    415.201273                    
V 25   2557.411685    925.050266 -31647.027760       .125098                    
P 26 -17303.271796  -1192.646840  19835.223594   -381.084152                    
V 26 -15427.296842 -20861.115475 -13856.264713      -.230725                    
P 27   1892.227824 -25389.409650   7796.462566    130.241471                    
V 27   5049.392608  -7980.236460 -29908.166393       .022405                    
P 28  -9198.452802 -13602.189302  21282.825826     -5.408665                    
V 28  25791.898825  -4409.547229   8124.831521      -.008475                    
P 29 -19311.100098  -4623.480106  18030.530006      5.230047                    
V 29 -13638.516048 -17639.234027 -18969.071252       .002160                    
P 30  -9435.180431  16130.864224 -19156.905862     43.194227                    
V 30 -23519.092596   3509.126557  14896.421931       .011881                    
P 31  11441.965696  11233.472070 -20963.012302     12.099794                    
V 31  -9875.853062  25230.780247   8124.279952      -.012068                    
P 32  22353.415610   6804.576401  12967.541365     22.953750                    
V 32 -15498.708806   3360.717234  26022.820846       .182091                    
EOF
